{
    "links": {
        "self": "http://www.neowsapp.com/rest/v1/neo/3838261?api_key=iIulBulltgU6a56xZRHN4H3l9WmuAYTsLGpBGhQ2"
    },
    "id": "3838261",
    "neo_reference_id": "3838261",
    "name": "(2019 CF5)",
    "designation": "2019 CF5",
    "nasa_jpl_url": "http://ssd.jpl.nasa.gov/sbdb.cgi?sstr=3838261",
    "absolute_magnitude_h": 24.0,
    "estimated_diameter": {
        "kilometers": {
            "estimated_diameter_min": 0.0421264611,
            "estimated_diameter_max": 0.0941976306
        },
        "meters": {
            "estimated_diameter_min": 42.1264610556,
            "estimated_diameter_max": 94.1976305719
        },
        "miles": {
            "estimated_diameter_min": 0.0261761612,
            "estimated_diameter_max": 0.0585316759
        },
        "feet": {
            "estimated_diameter_min": 138.2101784897,
            "estimated_diameter_max": 309.0473542854
        }
    },
    "is_potentially_hazardous_asteroid": false,
    "close_approach_data": [
        {
            "close_approach_date": "2019-02-05",
            "close_approach_date_full": "2019-Feb-05 01:45",
            "epoch_date_close_approach": 1549331100000,
            "relative_velocity": {
                "kilometers_per_second": "19.5544107062",
                "kilometers_per_hour": "70395.8785423416",
                "miles_per_hour": "43741.2613087122"
            },
            "miss_distance": {
                "astronomical": "0.0346564472",
                "lunar": "13.4813579608",
                "kilometers": "5184530.682887464",
                "miles": "3221517.9825724432"
            },
            "orbiting_body": "Earth"
        }
    ],
    "orbital_data": {
        "orbit_id": "2",
        "orbit_determination_date": "2019-02-13 07:04:26",
        "first_observation_date": "2019-02-11",
        "last_observation_date": "2019-02-13",
        "data_arc_in_days": 2,
        "observations_used": 57,
        "orbit_uncertainty": "8",
        "minimum_orbit_intersection": ".0345514",
        "jupiter_tisserand_invariant": "4.168",
        "epoch_osculation": "2458526.5",
        "eccentricity": ".6062352309413659",
        "semi_major_axis": "1.564921569785576",
        "inclination": "14.90022593766144",
        "ascending_node_longitude": "142.5322737453525",
        "orbital_period": "715.0514501919928",
        "perihelion_distance": ".6162109805214924",
        "perihelion_argument": "261.9274091237248",
        "aphelion_distance": "2.513632159049659",
        "perihelion_time": "2458468.962801919791",
        "mean_anomaly": "28.96769358808188",
        "mean_motion": ".5034602753456962",
        "equinox": "J2000",
        "orbit_class": {
            "orbit_class_type": "APO",
            "orbit_class_description": "Near-Earth asteroid orbits which cross the Earth’s orbit similar to that of 1862 Apollo",
            "orbit_class_range": "a (semi-major axis) > 1.0 AU; q (perihelion) < 1.017 AU"
        }
    },
    "is_sentry_object": false
}